[{"OBJECT_NAME":"STARLINK-34217","OBJECT_ID":"2025-133S","EPOCH":"2026-03-09T12:59:31.544448","MEAN_MOTION":15.3020563,"ECCENTRICITY":0.0001086,"INCLINATION":53.1585,"RA_OF_ASC_NODE":117.63,"ARG_OF_PERICENTER":81.4506,"MEAN_ANOMALY":278.6618,"EPHEMERIS_TYPE":0,"CLASSIFICATION_TYPE":"U","NORAD_CAT_ID":64488,"ELEMENT_SET_NO":999,"REV_AT_EPOCH":4105,"BSTAR":0.00097324,"MEAN_MOTION_DOT":0.00028581,"MEAN_MOTION_DDOT":0},{"OBJECT_NAME":"OBJECT F","OBJECT_ID":"2021-022F","EPOCH":"2026-03-09T23:37:37.165152","MEAN_MOTION":15.31317672,"ECCENTRICITY":0.00120882,"INCLINATION":97.3982,"RA_OF_ASC_NODE":329.8375,"ARG_OF_PERICENTER":85.9268,"MEAN_ANOMALY":274.3355,"EPHEMERIS_TYPE":0,"CLASSIFICATION_TYPE":"U","NORAD_CAT_ID":47937,"ELEMENT_SET_NO":999,"REV_AT_EPOCH":27452,"BSTAR":0.00038690553,"MEAN_MOTION_DOT":0.00011656,"MEAN_MOTION_DDOT":0}]
